[{"OBJECT_NAME":"SUPERVIEW-1 03","OBJECT_ID":"2018-002A","EPOCH":"2026-03-09T22:14:33.880992","MEAN_MOTION":15.35916978,"ECCENTRICITY":0.00509393,"INCLINATION":97.3162,"RA_OF_ASC_NODE":154.1458,"ARG_OF_PERICENTER":177.0269,"MEAN_ANOMALY":183.1288,"EPHEMERIS_TYPE":0,"CLASSIFICATION_TYPE":"U","NORAD_CAT_ID":43099,"ELEMENT_SET_NO":999,"REV_AT_EPOCH":45311,"BSTAR":0.00062641306,"MEAN_MOTION_DOT":0.00022818,"MEAN_MOTION_DDOT":0},{"OBJECT_NAME":"STARLINK-2667","OBJECT_ID":"2021-044AB","EPOCH":"2026-03-09T09:24:45.588384","MEAN_MOTION":15.30194564,"ECCENTRICITY":0.00013415,"INCLINATION":53.1586,"RA_OF_ASC_NODE":105.209,"ARG_OF_PERICENTER":84.4457,"MEAN_ANOMALY":275.6697,"EPHEMERIS_TYPE":0,"CLASSIFICATION_TYPE":"U","NORAD_CAT_ID":48663,"ELEMENT_SET_NO":999,"REV_AT_EPOCH":26392,"BSTAR":-1.6986694e-5,"MEAN_MOTION_DOT":-8.62e-6,"MEAN_MOTION_DDOT":0}]
